{
    "links": {
        "self": "http://www.neowsapp.com/rest/v1/neo/3607529?api_key=iIulBulltgU6a56xZRHN4H3l9WmuAYTsLGpBGhQ2"
    },
    "id": "3607529",
    "neo_reference_id": "3607529",
    "name": "(2012 PA20)",
    "designation": "2012 PA20",
    "nasa_jpl_url": "http://ssd.jpl.nasa.gov/sbdb.cgi?sstr=3607529",
    "absolute_magnitude_h": 22.2,
    "estimated_diameter": {
        "kilometers": {
            "estimated_diameter_min": 0.096506147,
            "estimated_diameter_max": 0.2157943048
        },
        "meters": {
            "estimated_diameter_min": 96.5061469579,
            "estimated_diameter_max": 215.7943048444
        },
        "miles": {
            "estimated_diameter_min": 0.059966121,
            "estimated_diameter_max": 0.134088323
        },
        "feet": {
            "estimated_diameter_min": 316.6212271853,
            "estimated_diameter_max": 707.9865871058
        }
    },
    "is_potentially_hazardous_asteroid": false,
    "close_approach_data": [
        {
            "close_approach_date": "2010-02-02",
            "close_approach_date_full": "2010-Feb-02 23:39",
            "epoch_date_close_approach": 1265153940000,
            "relative_velocity": {
                "kilometers_per_second": "22.9756423133",
                "kilometers_per_hour": "82712.3123277536",
                "miles_per_hour": "51394.2142905423"
            },
            "miss_distance": {
                "astronomical": "0.3272778951",
                "lunar": "127.3111011939",
                "kilometers": "48960076.005043437",
                "miles": "30422380.5250039506"
            },
            "orbiting_body": "Earth"
        },
        {
            "close_approach_date": "2012-10-15",
            "close_approach_date_full": "2012-Oct-15 19:40",
            "epoch_date_close_approach": 1350330000000,
            "relative_velocity": {
                "kilometers_per_second": "10.3525291169",
                "kilometers_per_hour": "37269.1048208339",
                "miles_per_hour": "23157.5723815898"
            },
            "miss_distance": {
                "astronomical": "0.1500866417",
                "lunar": "58.3837036213",
                "kilometers": "22452641.913773179",
                "miles": "13951424.7490567102"
            },
            "orbiting_body": "Earth"
        },
        {
            "close_approach_date": "2038-09-02",
            "close_approach_date_full": "2038-Sep-02 15:52",
            "epoch_date_close_approach": 2167055520000,
            "relative_velocity": {
                "kilometers_per_second": "22.7728528536",
                "kilometers_per_hour": "81982.2702730162",
                "miles_per_hour": "50940.5945482527"
            },
            "miss_distance": {
                "astronomical": "0.3494411903",
                "lunar": "135.9326230267",
                "kilometers": "52275657.759144661",
                "miles": "32482587.4939358818"
            },
            "orbiting_body": "Earth"
        },
        {
            "close_approach_date": "2087-09-16",
            "close_approach_date_full": "2087-Sep-16 09:36",
            "epoch_date_close_approach": 3714543360000,
            "relative_velocity": {
                "kilometers_per_second": "16.6660887433",
                "kilometers_per_hour": "59997.9194759221",
                "miles_per_hour": "37280.3739099139"
            },
            "miss_distance": {
                "astronomical": "0.1698039348",
                "lunar": "66.0537306372",
                "kilometers": "25402306.963698876",
                "miles": "15784261.6213054488"
            },
            "orbiting_body": "Earth"
        },
        {
            "close_approach_date": "2134-02-05",
            "close_approach_date_full": "2134-Feb-05 08:03",
            "epoch_date_close_approach": 5178412980000,
            "relative_velocity": {
                "kilometers_per_second": "23.1361874781",
                "kilometers_per_hour": "83290.2749211589",
                "miles_per_hour": "51753.3377697612"
            },
            "miss_distance": {
                "astronomical": "0.3341693773",
                "lunar": "129.9918877697",
                "kilometers": "49991027.063306351",
                "miles": "31062983.8074396038"
            },
            "orbiting_body": "Earth"
        }
    ],
    "orbital_data": {
        "orbit_id": "15",
        "orbit_determination_date": "2017-04-06 08:49:19",
        "first_observation_date": "2012-08-13",
        "last_observation_date": "2012-10-10",
        "data_arc_in_days": 58,
        "observations_used": 39,
        "orbit_uncertainty": "6",
        "minimum_orbit_intersection": ".0174123",
        "jupiter_tisserand_invariant": "3.576",
        "epoch_osculation": "2459000.5",
        "eccentricity": ".5832676722447795",
        "semi_major_axis": "2.02462844712199",
        "inclination": "6.793858260422199",
        "ascending_node_longitude": "299.8472410057033",
        "orbital_period": "1052.24392918851",
        "perihelion_distance": ".8437281256085841",
        "perihelion_argument": "118.859403605218",
        "aphelion_distance": "3.205528768635395",
        "perihelion_time": "2459398.509584950639",
        "mean_anomaly": "223.8305752044298",
        "mean_motion": ".3421259938060481",
        "equinox": "J2000",
        "orbit_class": {
            "orbit_class_type": "APO",
            "orbit_class_description": "Near-Earth asteroid orbits which cross the Earth’s orbit similar to that of 1862 Apollo",
            "orbit_class_range": "a (semi-major axis) > 1.0 AU; q (perihelion) < 1.017 AU"
        }
    },
    "is_sentry_object": false
}